NORAD_CAT_ID,OBJECT_NAME,OBJECT_TYPE,EPOCH,MEAN_MOTION,ECCENTRICITY,INCLINATION,RA_OF_ASC_NODE,ARG_OF_PERICENTER,MEAN_ANOMALY,BSTAR,MEAN_MOTION_DOT,MEAN_MOTION_DDOT,TLE_LINE0,TLE_LINE1,TLE_LINE2,SEMIMAJOR_AXIS,PERIOD,APOGEE,PERIGEE,DECAYED
53916.0,STARLINK-5051,PAYLOAD,2023-09-06 19:11:49,15.08837894,0.0001433,53.2174,80.8744,83.866,276.2495,5.3785e-05,5.68e-06,0.0,0 STARLINK-5051,1 53916U 22119AG  23249.79987736  .00000568  00000-0  53785-4 0  9996,2 53916  53.2174  80.8744 0001433  83.8660 276.2495 15.08837894 54008,6917.887,95.438,540.743,538.76,0.0
53916.0,STARLINK-5051,PAYLOAD,2023-09-06 22:22:35,15.08842121,0.0001595,53.2181,80.2805,77.7352,282.3819,5.4912e-05,5.86e-06,0.0,0 STARLINK-5051,1 53916U 22119AG  23249.93235500  .00000586  00000-0  54912-4 0  9990,2 53916  53.2181  80.2805 0001595  77.7352 282.3819 15.08842121 53597,6917.874,95.437,540.842,538.636,0.0
53916.0,STARLINK-5051,PAYLOAD,2023-09-07 06:19:31,15.08822182,0.0001592,53.2162,78.7922,88.5882,271.5293,0.00031213,4.681e-05,0.0,0 STARLINK-5051,1 53916U 22119AG  23250.26356126  .00004681  00000-0  31213-3 0  9994,2 53916  53.2162  78.7922 0001592  88.5882 271.5293 15.08822182 53640,6917.935,95.439,540.901,538.699,0.0
53916.0,STARLINK-5051,PAYLOAD,2023-09-07 20:37:59,15.08843999,0.0001608,53.216,76.1146,91.4834,268.6342,2.016e-05,3.3e-07,0.0,0 STARLINK-5051,1 53916U 22119AG  23250.85971220  .00000033  00000-0  20160-4 0  9994,2 53916  53.2160  76.1146 0001608  91.4834 268.6342 15.08843999 54165,6917.868,95.437,540.846,538.621,0.0
53916.0,STARLINK-5051,PAYLOAD,2023-09-07 22:13:22,15.08843993,0.0001609,53.216,75.8172,91.4607,268.6569,1.9603e-05,2.4e-07,0.0,0 STARLINK-5051,1 53916U 22119AG  23250.92595201  .00000024  00000-0  19603-4 0  9993,2 53916  53.2160  75.8172 0001609  91.4607 268.6569 15.08843993 54175,6917.868,95.437,540.846,538.62,0.0
53916.0,STARLINK-5051,PAYLOAD,2023-09-08 18:53:23,15.08834925,0.0001553,53.218,71.9503,92.9756,267.1414,-1.4069e-05,-5.12e-06,0.0,0 STARLINK-5051,1 53916U 22119AG  23251.78707919 -.00000512  00000-0 -14069-4 0  9994,2 53916  53.2180  71.9503 0001553  92.9756 267.1414 15.08834925 53875,6917.896,95.438,540.835,538.687,0.0
53916.0,STARLINK-5051,PAYLOAD,2023-09-08 20:28:46,15.08836575,0.0001578,53.2184,71.6525,95.7419,264.3753,2.787e-06,-2.44e-06,0.0,0 STARLINK-5051,1 53916U 22119AG  23251.85331774 -.00000244  00000-0  27870-5 0  9990,2 53916  53.2184  71.6525 0001578  95.7419 264.3753 15.08836575 54312,6917.891,95.438,540.848,538.664,0.0
53916.0,STARLINK-5051,PAYLOAD,2023-09-09 12:22:38,15.08835355,0.0001469,53.218,68.6797,103.1493,256.9663,1.0245e-06,-2.72e-06,0.0,0 STARLINK-5051,1 53916U 22119AG  23252.51571964 -.00000272  00000-0  10245-5 0  9990,2 53916  53.2180  68.6797 0001469 103.1493 256.9663 15.08835355 54413,6917.895,95.438,540.776,538.743,0.0
53916.0,STARLINK-5051,PAYLOAD,2023-09-09 18:44:10,15.0884216,0.0001345,53.2174,67.4911,90.787,269.3277,4.7499e-05,4.68e-06,0.0,0 STARLINK-5051,1 53916U 22119AG  23252.78067457  .00000468  00000-0  47499-4 0  9992,2 53916  53.2174  67.4911 0001345  90.7870 269.3277 15.08842160 54022,6917.874,95.437,540.669,538.808,0.0
53916.0,STARLINK-5051,PAYLOAD,2023-09-10 10:38:02,15.08835531,0.0001415,53.2187,64.5198,99.8406,260.2746,7.0343e-05,8.32e-06,0.0,0 STARLINK-5051,1 53916U 22119AG  23253.44307875  .00000832  00000-0  70343-4 0  9996,2 53916  53.2187  64.5198 0001415  99.8406 260.2746 15.08835531 54120,6917.894,95.438,540.738,538.78,0.0
53916.0,STARLINK-5051,PAYLOAD,2023-09-10 23:21:06,15.08842417,0.0001302,53.2183,62.1389,91.5671,268.5471,9.3635e-05,1.203e-05,0.0,0 STARLINK-5051,1 53916U 22119AG  23253.97299539  .00001203  00000-0  93635-4 0  9993,2 53916  53.2183  62.1389 0001302  91.5671 268.5471 15.08842417 54206,6917.873,95.437,540.639,538.837,0.0
53916.0,STARLINK-5051,PAYLOAD,2023-09-11 12:04:12,15.08833111,0.000109,53.2186,59.7603,87.1923,272.9194,1.4479e-05,-5.7e-07,0.0,0 STARLINK-5051,1 53916U 22119AG  23254.50292498 -.00000057  00000-0  14479-4 0  9996,2 53916  53.2186  59.7603 0001090  87.1923 272.9194 15.08833111 54713,6917.901,95.438,540.52,539.012,0.0
53916.0,STARLINK-5051,PAYLOAD,2023-09-11 16:50:21,15.08840303,0.0001777,53.2185,58.8659,111.3385,248.7797,4.7016e-05,4.6e-06,0.0,0 STARLINK-5051,1 53916U 22119AG  23254.70163912  .00000460  00000-0  47016-4 0  9996,2 53916  53.2185  58.8659 0001777 111.3385 248.7797 15.08840303 54314,6917.879,95.438,540.974,538.515,0.0
53916.0,STARLINK-5051,PAYLOAD,2023-09-11 23:11:53,15.08848032,0.0001329,53.2189,57.6759,99.6215,260.4927,0.00011351,1.519e-05,0.0,0 STARLINK-5051,1 53916U 22119AG  23254.96659191  .00001519  00000-0  11351-3 0  9991,2 53916  53.2189  57.6759 0001329  99.6215 260.4927 15.08848032 54356,6917.856,95.437,540.64,538.801,0.0
53916.0,STARLINK-5051,PAYLOAD,2023-09-12 03:58:03,15.08831974,2.85e-05,53.2197,56.7886,148.8929,211.208,-3.9846e-05,-9.21e-06,0.0,0 STARLINK-5051,1 53916U 22119AG  23255.16532266 -.00000921  00000-0 -39846-4 0  9995,2 53916  53.2197  56.7886 0000285 148.8929 211.2080 15.08831974 54389,6917.905,95.438,539.967,539.573,0.0
53916.0,STARLINK-5051,PAYLOAD,2023-09-12 18:16:31,15.08844959,0.0001295,53.2186,54.1086,81.2911,278.8228,5.9056e-05,6.52e-06,0.0,0 STARLINK-5051,1 53916U 22119AG  23255.76147837  .00000652  00000-0  59056-4 0  9991,2 53916  53.2186  54.1086 0001295  81.2911 278.8228 15.08844959 54474,6917.865,95.437,540.626,538.834,0.0
53916.0,STARLINK-5051,PAYLOAD,2023-09-13 03:48:50,15.08855744,0.0001314,53.2188,52.3279,116.5057,243.607,-5.0716e-05,-1.095e-05,0.0,0 STARLINK-5051,1 53916U 22119AG  23256.15891219 -.00001095  00000-0 -50716-4 0  9993,2 53916  53.2188  52.3279 0001314 116.5057 243.6070 15.08855744 54531,6917.832,95.437,540.606,538.788,0.0
53916.0,STARLINK-5051,PAYLOAD,2023-09-13 18:07:17,15.08856985,0.0001261,53.2186,49.6487,90.276,269.8377,0.00012061,1.633e-05,0.0,0 STARLINK-5051,1 53916U 22119AG  23256.75506689  .00001633  00000-0  12061-3 0  9999,2 53916  53.2186  49.6487 0001261  90.2760 269.8377 15.08856985 55055,6917.828,95.436,540.566,538.821,0.0
53916.0,STARLINK-5051,PAYLOAD,2023-09-14 10:01:11,15.08828577,0.0001426,53.2195,46.6742,90.1851,269.9305,5.2063e-05,5.41e-06,0.0,0 STARLINK-5051,1 53916U 22119AG  23257.41748903  .00000541  00000-0  52063-4 0  9994,2 53916  53.2195  46.6742 0001426  90.1851 269.9305 15.08828577 54720,6917.915,95.438,540.767,538.794,0.0
53916.0,STARLINK-5051,PAYLOAD,2023-09-14 17:58:06,15.08832228,0.0001352,53.2191,45.1889,84.8245,275.2902,-6.4715e-05,-1.317e-05,0.0,0 STARLINK-5051,1 53916U 22119AG  23257.74869167 -.00001317  00000-0 -64715-4 0  9997,2 53916  53.2191  45.1889 0001352  84.8245 275.2902 15.08832228 55202,6917.904,95.438,540.704,538.834,0.0
53916.0,STARLINK-5051,PAYLOAD,2023-09-15 03:30:25,15.08837978,0.0001333,53.2195,43.4047,84.7693,275.3452,2.4641e-05,1.04e-06,0.0,0 STARLINK-5051,1 53916U 22119AG  23258.14612771  .00000104  00000-0  24641-4 0  9994,2 53916  53.2195  43.4047 0001333  84.7693 275.3452 15.08837978 54834,6917.887,95.438,540.674,538.829,0.0
53916.0,STARLINK-5051,PAYLOAD,2023-09-15 13:02:43,15.08845293,0.000128,53.2183,41.621,75.6982,284.4152,8.1753e-05,1.014e-05,0.0,0 STARLINK-5051,1 53916U 22119AG  23258.54356174  .00001014  00000-0  81753-4 0  9998,2 53916  53.2183  41.6210 0001280  75.6982 284.4152 15.08845293 55326,6917.864,95.437,540.615,538.844,0.0
53916.0,STARLINK-5051,PAYLOAD,2023-09-15 17:48:53,15.08845636,0.0001304,53.2185,40.7287,77.2938,282.82,0.00042339,6.458e-05,0.0,0 STARLINK-5051,1 53916U 22119AG  23258.74228259  .00006458  00000-0  42339-3 0  9995,2 53916  53.2185  40.7287 0001304  77.2938 282.8200 15.08845636 54920,6917.863,95.437,540.63,538.826,0.0
53916.0,STARLINK-5051,PAYLOAD,2023-09-16 12:53:31,15.08838747,0.0001358,53.2186,37.1599,66.3167,293.7968,0.00021231,3.092e-05,0.0,0 STARLINK-5051,1 53916U 22119AG  23259.53716954  .00003092  00000-0  21231-3 0  9996,2 53916  53.2186  37.1599 0001358  66.3167 293.7968 15.08838747 55477,6917.884,95.438,540.689,538.81,0.0
53916.0,STARLINK-5051,PAYLOAD,2023-09-16 16:04:17,15.08841088,0.000135,53.2186,36.5654,70.2101,289.9037,0.00023004,3.375e-05,0.0,0 STARLINK-5051,1 53916U 22119AG  23259.66964862  .00003375  00000-0  23004-3 0  9997,2 53916  53.2186  36.5654 0001350  70.2101 289.9037 15.08841088 55067,6917.877,95.437,540.676,538.808,0.0
53916.0,STARLINK-5051,PAYLOAD,2023-09-17 12:44:18,15.08846007,0.0001435,53.2191,32.6994,73.0343,287.0807,0.00012511,1.704e-05,0.0,0 STARLINK-5051,1 53916U 22119AG  23260.53076563  .00001704  00000-0  12511-3 0  9992,2 53916  53.2191  32.6994 0001435  73.0343 287.0807 15.08846007 55622,6917.862,95.437,540.72,538.734,0.0
53916.0,STARLINK-5051,PAYLOAD,2023-09-17 17:30:27,15.0885887,0.0001381,53.2186,31.8081,71.4791,288.6351,0.00030333,4.545e-05,0.0,0 STARLINK-5051,1 53916U 22119AG  23260.72948005  .00004545  00000-0  30333-3 0  9990,2 53916  53.2186  31.8081 0001381  71.4791 288.6351 15.08858870 55221,6917.823,95.436,540.643,538.732,0.0
53916.0,STARLINK-5051,PAYLOAD,2023-09-18 14:10:28,15.0884776,0.0001437,53.2188,27.9412,77.3747,282.7405,0.00018754,2.699e-05,0.0,0 STARLINK-5051,1 53916U 22119AG  23261.59060289  .00002699  00000-0  18754-3 0  9996,2 53916  53.2188  27.9412 0001437  77.3747 282.7405 15.08847760 55787,6917.857,95.437,540.716,538.728,0.0
53916.0,STARLINK-5051,PAYLOAD,2023-09-18 18:56:37,15.08854415,0.0001445,53.219,27.048,85.8992,274.2165,0.00029222,4.368e-05,0.0,0 STARLINK-5051,1 53916U 22119AG  23261.78931926  .00004368  00000-0  29222-3 0  9999,2 53916  53.2190  27.0480 0001445  85.8992 274.2165 15.08854415 55819,6917.836,95.437,540.701,538.702,0.0
53916.0,STARLINK-5051,PAYLOAD,2023-09-19 01:18:10,15.08844019,0.0001561,53.2189,25.8594,81.2628,278.8541,8.2811e-05,1.03e-05,0.0,0 STARLINK-5051,1 53916U 22119AG  23262.05428286  .00001030  00000-0  82811-4 0  9997,2 53916  53.2189  25.8594 0001561  81.2628 278.8541 15.08844019 55428,6917.868,95.437,540.813,538.653,0.0
